{
  "links" : {
    "next" : "https://api.nasa.gov/neo/rest/v1/feed?start_date=2009-05-23&end_date=2009-05-23&detailed=true&api_key=t0TVs3DtDT2H8Oy2Zy8m2eVrNsAVKAexjcZXUckd",
    "prev" : "https://api.nasa.gov/neo/rest/v1/feed?start_date=2009-05-21&end_date=2009-05-21&detailed=true&api_key=t0TVs3DtDT2H8Oy2Zy8m2eVrNsAVKAexjcZXUckd",
    "self" : "https://api.nasa.gov/neo/rest/v1/feed?start_date=2009-05-22&end_date=2009-05-22&detailed=true&api_key=t0TVs3DtDT2H8Oy2Zy8m2eVrNsAVKAexjcZXUckd"
  },
  "element_count" : 3,
  "near_earth_objects" : {
    "2009-05-22" : [ {
      "links" : {
        "self" : "https://api.nasa.gov/neo/rest/v1/neo/3127387?api_key=t0TVs3DtDT2H8Oy2Zy8m2eVrNsAVKAexjcZXUckd"
      },
      "neo_reference_id" : "3127387",
      "name" : "(2002 LK)",
      "nasa_jpl_url" : "http://ssd.jpl.nasa.gov/sbdb.cgi?sstr=3127387",
      "absolute_magnitude_h" : 24.2,
      "estimated_diameter" : {
        "kilometers" : {
          "estimated_diameter_min" : 0.0384197891,
          "estimated_diameter_max" : 0.0859092601
        },
        "meters" : {
          "estimated_diameter_min" : 38.4197891064,
          "estimated_diameter_max" : 85.9092601232
        },
        "miles" : {
          "estimated_diameter_min" : 0.0238729428,
          "estimated_diameter_max" : 0.0533815229
        },
        "feet" : {
          "estimated_diameter_min" : 126.0491808919,
          "estimated_diameter_max" : 281.8545369825
        }
      },
      "is_potentially_hazardous_asteroid" : false,
      "close_approach_data" : [ {
        "close_approach_date" : "2009-05-22",
        "epoch_date_close_approach" : 1242975600000,
        "relative_velocity" : {
          "kilometers_per_second" : "13.3207294962",
          "kilometers_per_hour" : "47954.6261862941",
          "miles_per_hour" : "29797.1398100337"
        },
        "miss_distance" : {
          "astronomical" : "0.2725889797",
          "lunar" : "106.037109375",
          "kilometers" : "40778728",
          "miles" : "25338728"
        },
        "orbiting_body" : "Earth"
      } ],
      "orbital_data" : {
        "orbit_id" : "12",
        "orbit_determination_date" : "2017-04-06 09:15:07",
        "orbit_uncertainty" : "7",
        "minimum_orbit_intersection" : ".023228",
        "jupiter_tisserand_invariant" : "5.542",
        "epoch_osculation" : "2458000.5",
        "eccentricity" : ".1485452301612858",
        "semi_major_axis" : "1.103257984475801",
        "inclination" : "25.03110394159686",
        "ascending_node_longitude" : "248.4456824503459",
        "orbital_period" : "423.2666448819089",
        "perihelion_distance" : ".9393742732445668",
        "perihelion_argument" : "285.6794971331526",
        "aphelion_distance" : "1.267141695707035",
        "perihelion_time" : "2457859.241348831467",
        "mean_anomaly" : "120.1443936950426",
        "mean_motion" : ".8505276859234674",
        "equinox" : "J2000"
      }
    }, {
      "links" : {
        "self" : "https://api.nasa.gov/neo/rest/v1/neo/3445544?api_key=t0TVs3DtDT2H8Oy2Zy8m2eVrNsAVKAexjcZXUckd"
      },
      "neo_reference_id" : "3445544",
      "name" : "(2009 CE)",
      "nasa_jpl_url" : "http://ssd.jpl.nasa.gov/sbdb.cgi?sstr=3445544",
      "absolute_magnitude_h" : 24.6,
      "estimated_diameter" : {
        "kilometers" : {
          "estimated_diameter_min" : 0.0319561887,
          "estimated_diameter_max" : 0.0714562102
        },
        "meters" : {
          "estimated_diameter_min" : 31.9561886721,
          "estimated_diameter_max" : 71.4562101727
        },
        "miles" : {
          "estimated_diameter_min" : 0.0198566489,
          "estimated_diameter_max" : 0.0444008168
        },
        "feet" : {
          "estimated_diameter_min" : 104.8431420431,
          "estimated_diameter_max" : 234.436392583
        }
      },
      "is_potentially_hazardous_asteroid" : false,
      "close_approach_data" : [ {
        "close_approach_date" : "2009-05-22",
        "epoch_date_close_approach" : 1242975600000,
        "relative_velocity" : {
          "kilometers_per_second" : "5.3915319296",
          "kilometers_per_hour" : "19409.5149466132",
          "miles_per_hour" : "12060.3177733553"
        },
        "miss_distance" : {
          "astronomical" : "0.2281136855",
          "lunar" : "88.7362213135",
          "kilometers" : "34125320",
          "miles" : "21204492"
        },
        "orbiting_body" : "Earth"
      } ],
      "orbital_data" : {
        "orbit_id" : "7",
        "orbit_determination_date" : "2017-04-06 09:01:28",
        "orbit_uncertainty" : "7",
        "minimum_orbit_intersection" : ".0659485",
        "jupiter_tisserand_invariant" : "6.635",
        "epoch_osculation" : "2458000.5",
        "eccentricity" : ".1873200333238078",
        "semi_major_axis" : ".892635029153654",
        "inclination" : "8.137156646263824",
        "ascending_node_longitude" : "127.7337023569578",
        "orbital_period" : "308.0415608320432",
        "perihelion_distance" : ".7254266057465935",
        "perihelion_argument" : "190.34833968",
        "aphelion_distance" : "1.059843452560715",
        "perihelion_time" : "2458113.208362077551",
        "mean_anomaly" : "228.2807273202935",
        "mean_motion" : "1.16867347064342",
        "equinox" : "J2000"
      }
    }, {
      "links" : {
        "self" : "https://api.nasa.gov/neo/rest/v1/neo/3748472?api_key=t0TVs3DtDT2H8Oy2Zy8m2eVrNsAVKAexjcZXUckd"
      },
      "neo_reference_id" : "3748472",
      "name" : "(2016 FU12)",
      "nasa_jpl_url" : "http://ssd.jpl.nasa.gov/sbdb.cgi?sstr=3748472",
      "absolute_magnitude_h" : 26.9,
      "estimated_diameter" : {
        "kilometers" : {
          "estimated_diameter_min" : 0.0110803882,
          "estimated_diameter_max" : 0.0247765013
        },
        "meters" : {
          "estimated_diameter_min" : 11.0803882126,
          "estimated_diameter_max" : 24.7765012606
        },
        "miles" : {
          "estimated_diameter_min" : 0.0068850319,
          "estimated_diameter_max" : 0.0153953994
        },
        "feet" : {
          "estimated_diameter_min" : 36.3529808636,
          "estimated_diameter_max" : 81.2877363957
        }
      },
      "is_potentially_hazardous_asteroid" : false,
      "close_approach_data" : [ {
        "close_approach_date" : "2009-05-22",
        "epoch_date_close_approach" : 1242975600000,
        "relative_velocity" : {
          "kilometers_per_second" : "4.4051220825",
          "kilometers_per_hour" : "15858.439497096",
          "miles_per_hour" : "9853.8175864039"
        },
        "miss_distance" : {
          "astronomical" : "0.1591265338",
          "lunar" : "61.9002227783",
          "kilometers" : "23804992",
          "miles" : "14791736"
        },
        "orbiting_body" : "Earth"
      } ],
      "orbital_data" : {
        "orbit_id" : "4",
        "orbit_determination_date" : "2017-04-06 08:27:11",
        "orbit_uncertainty" : "7",
        "minimum_orbit_intersection" : ".0336951",
        "jupiter_tisserand_invariant" : "6.057",
        "epoch_osculation" : "2458000.5",
        "eccentricity" : ".1659032170444373",
        "semi_major_axis" : "1.002189261805455",
        "inclination" : "2.07974763007612",
        "ascending_node_longitude" : "227.003991790028",
        "orbital_period" : "366.4570190374504",
        "perihelion_distance" : ".8359228391845402",
        "perihelion_argument" : "194.9107288518438",
        "aphelion_distance" : "1.16845568442637",
        "perihelion_time" : "2458097.775755561877",
        "mean_anomaly" : "264.4382555578862",
        "mean_motion" : ".9823798734858167",
        "equinox" : "J2000"
      }
    } ]
  }
}